ONEWEB-0353             
1 49282U 21090D   26165.31823432  .00000045  00000+0  85977-4 0  9991
2 49282  87.8962 290.2764 0001639  98.7144 261.4171 13.14503169227207
ONEWEB-0356             
1 49283U 21090E   26165.27177850  .00000063  00000+0  12413-3 0  9997
2 49283  87.9194 275.0155 0002152  78.3853 281.7522 13.20773102229449
ONEWEB-0358             
1 49284U 21090F   26165.22774364  .00000033  00000+0  48525-4 0  9997
2 49284  87.9194 275.0291 0002108  96.1682 263.9692 13.20236929230162
ONEWEB-0359             
1 49285U 21090G   26165.22295663  .00000042  00000+0  70601-4 0  9998
2 49285  87.9192 275.0250 0002249 100.3676 259.7711 13.20773227230143
ONEWEB-0360             
1 49286U 21090H   26165.28860524  .00001100  00000+0  26726-2 0  9992
2 49286  87.9192 275.0182 0002079 102.4131 257.7235 13.20782228229461
ONEWEB-0361             
1 49287U 21090J   26165.27009185  .00000088  00000+0  18343-3 0  9991
2 49287  87.9195 275.0202 0002093  99.0151 261.1219 13.20770753229918
ONEWEB-0362             
1 49288U 21090K   26165.14455160 -.00000055  00000+0 -16891-3 0  9998
2 49288  87.9166 305.5841 0001891 106.7858 253.3483 13.19724370226511
ONEWEB-0363             
1 49289U 21090L   26165.28523910  .00000051  00000+0  92783-4 0  9992
2 49289  87.9194 275.0175 0002071  91.4265 268.7105 13.20770585229927
ONEWEB-0364             
1 49290U 21090M   26165.24820863  .00000095  00000+0  20082-3 0  9997
2 49290  87.9190 275.0328 0002000 101.0025 259.1334 13.20771456231052
ONEWEB-0365             
1 49291U 21090N   26164.92658265 -.00000034  00000+0 -11741-3 0  9994
2 49291  87.9173 305.6159 0001772 100.0460 260.0873 13.19724845225996
ONEWEB-0366             
1 49292U 21090P   26165.31505989  .00000044  00000+0  84118-4 0  9991
2 49292  87.8961 290.2790 0001941 100.4658 259.6690 13.14502823227181
ONEWEB-0367             
1 49293U 21090Q   26165.28441082 -.00000099  00000+0 -27440-3 0  9997
2 49293  87.9195 275.0188 0001759 107.6706 252.4620 13.20771006229447
ONEWEB-0368             
1 49294U 21090R   26165.25830076  .00000092  00000+0  19329-3 0  9998
2 49294  87.9183 275.0349 0001497  81.3630 278.7673 13.20770276230592
ONEWEB-0369             
1 49295U 21090S   26165.14929822 -.00000042  00000+0 -13680-3 0  9996
2 49295  87.9165 305.5794 0001786  97.3717 262.7619 13.19724465226012
ONEWEB-0370             
1 49296U 21090T   26165.29365757  .00000030  00000+0  41400-4 0  9991
2 49296  87.9193 275.0167 0002149 105.9148 254.2222 13.20770311229480
ONEWEB-0371             
1 49297U 21090U   26165.30882230  .00000024  00000+0  27402-4 0  9993
2 49297  87.9173 305.5396 0001828 101.6636 258.4702 13.19724681226078
