[{"OBJECT_NAME":"ONEWEB-0353","OBJECT_ID":"2021-090D","EPOCH":"2026-06-14T07:38:15.445248","MEAN_MOTION":13.14503169,"ECCENTRICITY":0.0001639,"INCLINATION":87.8962,"RA_OF_ASC_NODE":290.2764,"ARG_OF_PERICENTER":98.7144,"MEAN_ANOMALY":261.4171,"EPHEMERIS_TYPE":0,"CLASSIFICATION_TYPE":"U","NORAD_CAT_ID":49282,"ELEMENT_SET_NO":999,"REV_AT_EPOCH":22720,"BSTAR":8.597700000000001e-05,"MEAN_MOTION_DOT":4.5e-07,"MEAN_MOTION_DDOT":0.0},{"OBJECT_NAME":"ONEWEB-0356","OBJECT_ID":"2021-090E","EPOCH":"2026-06-14T06:31:21.662400","MEAN_MOTION":13.20773102,"ECCENTRICITY":0.0002152,"INCLINATION":87.9194,"RA_OF_ASC_NODE":275.0155,"ARG_OF_PERICENTER":78.3853,"MEAN_ANOMALY":281.7522,"EPHEMERIS_TYPE":0,"CLASSIFICATION_TYPE":"U","NORAD_CAT_ID":49283,"ELEMENT_SET_NO":999,"REV_AT_EPOCH":22944,"BSTAR":0.00012413000000000002,"MEAN_MOTION_DOT":6.3e-07,"MEAN_MOTION_DDOT":0.0},{"OBJECT_NAME":"ONEWEB-0358","OBJECT_ID":"2021-090F","EPOCH":"2026-06-14T05:27:57.050496","MEAN_MOTION":13.20236929,"ECCENTRICITY":0.0002108,"INCLINATION":87.9194,"RA_OF_ASC_NODE":275.0291,"ARG_OF_PERICENTER":96.1682,"MEAN_ANOMALY":263.9692,"EPHEMERIS_TYPE":0,"CLASSIFICATION_TYPE":"U","NORAD_CAT_ID":49284,"ELEMENT_SET_NO":999,"REV_AT_EPOCH":23016,"BSTAR":4.8525e-05,"MEAN_MOTION_DOT":3.3e-07,"MEAN_MOTION_DDOT":0.0},{"OBJECT_NAME":"ONEWEB-0359","OBJECT_ID":"2021-090G","EPOCH":"2026-06-14T05:21:03.452832","MEAN_MOTION":13.20773227,"ECCENTRICITY":0.0002249,"INCLINATION":87.9192,"RA_OF_ASC_NODE":275.025,"ARG_OF_PERICENTER":100.3676,"MEAN_ANOMALY":259.7711,"EPHEMERIS_TYPE":0,"CLASSIFICATION_TYPE":"U","NORAD_CAT_ID":49285,"ELEMENT_SET_NO":999,"REV_AT_EPOCH":23014,"BSTAR":7.060100000000001e-05,"MEAN_MOTION_DOT":4.2e-07,"MEAN_MOTION_DDOT":0.0},{"OBJECT_NAME":"ONEWEB-0360","OBJECT_ID":"2021-090H","EPOCH":"2026-06-14T06:55:35.492736","MEAN_MOTION":13.20782228,"ECCENTRICITY":0.0002079,"INCLINATION":87.9192,"RA_OF_ASC_NODE":275.0182,"ARG_OF_PERICENTER":102.4131,"MEAN_ANOMALY":257.7235,"EPHEMERIS_TYPE":0,"CLASSIFICATION_TYPE":"U","NORAD_CAT_ID":49286,"ELEMENT_SET_NO":999,"REV_AT_EPOCH":22946,"BSTAR":0.0026726000000000002,"MEAN_MOTION_DOT":1.1e-05,"MEAN_MOTION_DDOT":0.0},{"OBJECT_NAME":"ONEWEB-0361","OBJECT_ID":"2021-090J","EPOCH":"2026-06-14T06:28:55.935840","MEAN_MOTION":13.20770753,"ECCENTRICITY":0.0002093,"INCLINATION":87.9195,"RA_OF_ASC_NODE":275.0202,"ARG_OF_PERICENTER":99.0151,"MEAN_ANOMALY":261.1219,"EPHEMERIS_TYPE":0,"CLASSIFICATION_TYPE":"U","NORAD_CAT_ID":49287,"ELEMENT_SET_NO":999,"REV_AT_EPOCH":22991,"BSTAR":0.00018343000000000002,"MEAN_MOTION_DOT":8.8e-07,"MEAN_MOTION_DDOT":0.0},{"OBJECT_NAME":"ONEWEB-0362","OBJECT_ID":"2021-090K","EPOCH":"2026-06-14T03:28:09.258240","MEAN_MOTION":13.1972437,"ECCENTRICITY":0.0001891,"INCLINATION":87.9166,"RA_OF_ASC_NODE":305.5841,"ARG_OF_PERICENTER":106.7858,"MEAN_ANOMALY":253.3483,"EPHEMERIS_TYPE":0,"CLASSIFICATION_TYPE":"U","NORAD_CAT_ID":49288,"ELEMENT_SET_NO":999,"REV_AT_EPOCH":22651,"BSTAR":-0.00016891,"MEAN_MOTION_DOT":-5.5e-07,"MEAN_MOTION_DDOT":0.0},{"OBJECT_NAME":"ONEWEB-0363","OBJECT_ID":"2021-090L","EPOCH":"2026-06-14T06:50:44.658240","MEAN_MOTION":13.20770585,"ECCENTRICITY":0.0002071,"INCLINATION":87.9194,"RA_OF_ASC_NODE":275.0175,"ARG_OF_PERICENTER":91.4265,"MEAN_ANOMALY":268.7105,"EPHEMERIS_TYPE":0,"CLASSIFICATION_TYPE":"U","NORAD_CAT_ID":49289,"ELEMENT_SET_NO":999,"REV_AT_EPOCH":22992,"BSTAR":9.278300000000001e-05,"MEAN_MOTION_DOT":5.1e-07,"MEAN_MOTION_DDOT":0.0},{"OBJECT_NAME":"ONEWEB-0364","OBJECT_ID":"2021-090M","EPOCH":"2026-06-14T05:57:25.225632","MEAN_MOTION":13.20771456,"ECCENTRICITY":0.0002,"INCLINATION":87.919,"RA_OF_ASC_NODE":275.0328,"ARG_OF_PERICENTER":101.0025,"MEAN_ANOMALY":259.1334,"EPHEMERIS_TYPE":0,"CLASSIFICATION_TYPE":"U","NORAD_CAT_ID":49290,"ELEMENT_SET_NO":999,"REV_AT_EPOCH":23105,"BSTAR":0.00020082,"MEAN_MOTION_DOT":9.5e-07,"MEAN_MOTION_DDOT":0.0},{"OBJECT_NAME":"ONEWEB-0365","OBJECT_ID":"2021-090N","EPOCH":"2026-06-13T22:14:16.740960","MEAN_MOTION":13.19724845,"ECCENTRICITY":0.0001772,"INCLINATION":87.9173,"RA_OF_ASC_NODE":305.6159,"ARG_OF_PERICENTER":100.046,"MEAN_ANOMALY":260.0873,"EPHEMERIS_TYPE":0,"CLASSIFICATION_TYPE":"U","NORAD_CAT_ID":49291,"ELEMENT_SET_NO":999,"REV_AT_EPOCH":22599,"BSTAR":-0.00011741,"MEAN_MOTION_DOT":-3.4e-07,"MEAN_MOTION_DDOT":0.0},{"OBJECT_NAME":"ONEWEB-0366","OBJECT_ID":"2021-090P","EPOCH":"2026-06-14T07:33:41.174496","MEAN_MOTION":13.14502823,"ECCENTRICITY":0.0001941,"INCLINATION":87.8961,"RA_OF_ASC_NODE":290.279,"ARG_OF_PERICENTER":100.4658,"MEAN_ANOMALY":259.669,"EPHEMERIS_TYPE":0,"CLASSIFICATION_TYPE":"U","NORAD_CAT_ID":49292,"ELEMENT_SET_NO":999,"REV_AT_EPOCH":22718,"BSTAR":8.411800000000001e-05,"MEAN_MOTION_DOT":4.4e-07,"MEAN_MOTION_DDOT":0.0},{"OBJECT_NAME":"ONEWEB-0367","OBJECT_ID":"2021-090Q","EPOCH":"2026-06-14T06:49:33.094848","MEAN_MOTION":13.20771006,"ECCENTRICITY":0.0001759,"INCLINATION":87.9195,"RA_OF_ASC_NODE":275.0188,"ARG_OF_PERICENTER":107.6706,"MEAN_ANOMALY":252.462,"EPHEMERIS_TYPE":0,"CLASSIFICATION_TYPE":"U","NORAD_CAT_ID":49293,"ELEMENT_SET_NO":999,"REV_AT_EPOCH":22944,"BSTAR":-0.0002744,"MEAN_MOTION_DOT":-9.9e-07,"MEAN_MOTION_DDOT":0.0},{"OBJECT_NAME":"ONEWEB-0368","OBJECT_ID":"2021-090R","EPOCH":"2026-06-14T06:11:57.185664","MEAN_MOTION":13.20770276,"ECCENTRICITY":0.0001497,"INCLINATION":87.9183,"RA_OF_ASC_NODE":275.0349,"ARG_OF_PERICENTER":81.363,"MEAN_ANOMALY":278.7673,"EPHEMERIS_TYPE":0,"CLASSIFICATION_TYPE":"U","NORAD_CAT_ID":49294,"ELEMENT_SET_NO":999,"REV_AT_EPOCH":23059,"BSTAR":0.00019329,"MEAN_MOTION_DOT":9.2e-07,"MEAN_MOTION_DDOT":0.0},{"OBJECT_NAME":"ONEWEB-0369","OBJECT_ID":"2021-090S","EPOCH":"2026-06-14T03:34:59.366208","MEAN_MOTION":13.19724465,"ECCENTRICITY":0.0001786,"INCLINATION":87.9165,"RA_OF_ASC_NODE":305.5794,"ARG_OF_PERICENTER":97.3717,"MEAN_ANOMALY":262.7619,"EPHEMERIS_TYPE":0,"CLASSIFICATION_TYPE":"U","NORAD_CAT_ID":49295,"ELEMENT_SET_NO":999,"REV_AT_EPOCH":22601,"BSTAR":-0.00013680000000000002,"MEAN_MOTION_DOT":-4.2e-07,"MEAN_MOTION_DDOT":0.0},{"OBJECT_NAME":"ONEWEB-0370","OBJECT_ID":"2021-090T","EPOCH":"2026-06-14T07:02:52.014048","MEAN_MOTION":13.20770311,"ECCENTRICITY":0.0002149,"INCLINATION":87.9193,"RA_OF_ASC_NODE":275.0167,"ARG_OF_PERICENTER":105.9148,"MEAN_ANOMALY":254.2222,"EPHEMERIS_TYPE":0,"CLASSIFICATION_TYPE":"U","NORAD_CAT_ID":49296,"ELEMENT_SET_NO":999,"REV_AT_EPOCH":22948,"BSTAR":4.14e-05,"MEAN_MOTION_DOT":3e-07,"MEAN_MOTION_DDOT":0.0},{"OBJECT_NAME":"ONEWEB-0371","OBJECT_ID":"2021-090U","EPOCH":"2026-06-14T07:24:42.246720","MEAN_MOTION":13.19724681,"ECCENTRICITY":0.0001828,"INCLINATION":87.9173,"RA_OF_ASC_NODE":305.5396,"ARG_OF_PERICENTER":101.6636,"MEAN_ANOMALY":258.4702,"EPHEMERIS_TYPE":0,"CLASSIFICATION_TYPE":"U","NORAD_CAT_ID":49297,"ELEMENT_SET_NO":999,"REV_AT_EPOCH":22607,"BSTAR":2.7402e-05,"MEAN_MOTION_DOT":2.4e-07,"MEAN_MOTION_DDOT":0.0}]